[{"province":"Jawa Barat","city":"Bekasi","district":"Muara Gembong","urban":"Pantai Mekar","postal_code":17730},{"province":"Jawa Barat","city":"Bekasi","district":"Muara Gembong","urban":"Pantai Sederhana","postal_code":17730},{"province":"Jawa Barat","city":"Bekasi","district":"Muara Gembong","urban":"Pantai Harapan Jaya","postal_code":17730},{"province":"Jawa Barat","city":"Bekasi","district":"Muara Gembong","urban":"Jayasakti","postal_code":17730},{"province":"Jawa Barat","city":"Bekasi","district":"Muara Gembong","urban":"Pantai Bahagia","postal_code":17730},{"province":"Jawa Barat","city":"Bekasi","district":"Muara Gembong","urban":"Pantai Bakti","postal_code":17730},{"province":"Jawa Barat","city":"Bekasi","district":"Cabangbungin","urban":"Sindangsari","postal_code":17720},{"province":"Jawa Barat","city":"Bekasi","district":"Cabangbungin","urban":"Sindang Jaya","postal_code":17720},{"province":"Jawa Barat","city":"Bekasi","district":"Cabangbungin","urban":"Setialaksana","postal_code":17720},{"province":"Jawa Barat","city":"Bekasi","district":"Cabangbungin","urban":"Setia Jaya","postal_code":17720},{"province":"Jawa Barat","city":"Bekasi","district":"Cabangbungin","urban":"Lenggah Sari","postal_code":17720},{"province":"Jawa Barat","city":"Bekasi","district":"Cabangbungin","urban":"Jaya Laksana","postal_code":17720},{"province":"Jawa Barat","city":"Bekasi","district":"Cabangbungin","urban":"Lenggah Jaya","postal_code":17720},{"province":"Jawa Barat","city":"Bekasi","district":"Cabangbungin","urban":"Jaya Bakti","postal_code":17720},{"province":"Jawa Barat","city":"Bekasi","district":"Pebayuran","urban":"Sumbersari","postal_code":17710},{"province":"Jawa Barat","city":"Bekasi","district":"Pebayuran","urban":"Sumberurip","postal_code":17710},{"province":"Jawa Barat","city":"Bekasi","district":"Pebayuran","urban":"Sumberreja","postal_code":17710},{"province":"Jawa Barat","city":"Bekasi","district":"Pebayuran","urban":"Kertasari","postal_code":17710},{"province":"Jawa Barat","city":"Bekasi","district":"Pebayuran","urban":"Kertajaya","postal_code":17710},{"province":"Jawa Barat","city":"Bekasi","district":"Pebayuran","urban":"Karangsegar","postal_code":17710},{"province":"Jawa Barat","city":"Bekasi","district":"Pebayuran","urban":"Karangreja","postal_code":17710},{"province":"Jawa Barat","city":"Bekasi","district":"Pebayuran","urban":"Karangjaya","postal_code":17710},{"province":"Jawa Barat","city":"Bekasi","district":"Pebayuran","urban":"Karangpatri","postal_code":17710},{"province":"Jawa Barat","city":"Bekasi","district":"Pebayuran","urban":"Karang Harja","postal_code":17710},{"province":"Jawa Barat","city":"Bekasi","district":"Pebayuran","urban":"Karanghaur","postal_code":17710},{"province":"Jawa Barat","city":"Bekasi","district":"Pebayuran","urban":"Bantarjaya","postal_code":17710},{"province":"Jawa Barat","city":"Bekasi","district":"Pebayuran","urban":"Bantarsari","postal_code":17710},{"province":"Jawa Barat","city":"Bekasi","district":"Sukakarya","urban":"Sukamurni","postal_code":17630},{"province":"Jawa Barat","city":"Bekasi","district":"Sukatani","urban":"Sukarukun","postal_code":17630},{"province":"Jawa Barat","city":"Bekasi","district":"Sukatani","urban":"Sukamanah","postal_code":17630},{"province":"Jawa Barat","city":"Bekasi","district":"Sukatani","urban":"Sukamulya","postal_code":17630},{"province":"Jawa Barat","city":"Bekasi","district":"Sukakarya","urban":"Sukalaksana","postal_code":17630},{"province":"Jawa Barat","city":"Bekasi","district":"Sukakarya","urban":"Sukamakmur","postal_code":17630},{"province":"Jawa Barat","city":"Bekasi","district":"Sukakarya","urban":"Sukajadi","postal_code":17630},{"province":"Jawa Barat","city":"Bekasi","district":"Sukakarya","urban":"Sukakarya","postal_code":17630},{"province":"Jawa Barat","city":"Bekasi","district":"Sukakarya","urban":"Sukakersa","postal_code":17630},{"province":"Jawa Barat","city":"Bekasi","district":"Sukatani","urban":"Sukahurip","postal_code":17630},{"province":"Jawa Barat","city":"Bekasi","district":"Sukakarya","urban":"Sukaindah","postal_code":17630},{"province":"Jawa Barat","city":"Bekasi","district":"Sukatani","urban":"Suka Asih","postal_code":17630},{"province":"Jawa Barat","city":"Bekasi","district":"Sukatani","urban":"Sukadarma","postal_code":17630},{"province":"Jawa Barat","city":"Bekasi","district":"Sukatani","urban":"Banjar Sari","postal_code":17630},{"province":"Jawa Barat","city":"Bekasi","district":"Tambelang","urban":"Sukawijaya","postal_code":17620},{"province":"Jawa Barat","city":"Bekasi","district":"Sukawangi","urban":"Sukawangi","postal_code":17620},{"province":"Jawa Barat","city":"Bekasi","district":"Sukawangi","urban":"Sukaringin","postal_code":17620},{"province":"Jawa Barat","city":"Bekasi","district":"Sukawangi","urban":"Sukatenang","postal_code":17620},{"province":"Jawa Barat","city":"Bekasi","district":"Tambelang","urban":"Sukaraja","postal_code":17620},{"province":"Jawa Barat","city":"Bekasi","district":"Tambelang","urban":"Sukarapih","postal_code":17620},{"province":"Jawa Barat","city":"Bekasi","district":"Tambelang","urban":"Sukamantri","postal_code":17620},{"province":"Jawa Barat","city":"Bekasi","district":"Tambelang","urban":"Sukarahayu","postal_code":17620},{"province":"Jawa Barat","city":"Bekasi","district":"Sukawangi","urban":"Sukamekar","postal_code":17620},{"province":"Jawa Barat","city":"Bekasi","district":"Tambelang","urban":"Sukamaju","postal_code":17620},{"province":"Jawa Barat","city":"Bekasi","district":"Sukawangi","urban":"Sukakerta","postal_code":17620},{"province":"Jawa Barat","city":"Bekasi","district":"Sukawangi","urban":"Sukabudi","postal_code":17620},{"province":"Jawa Barat","city":"Bekasi","district":"Sukawangi","urban":"Sukadaya","postal_code":17620},{"province":"Jawa Barat","city":"Bekasi","district":"Tambelang","urban":"Sukabakti","postal_code":17620},{"province":"Jawa Barat","city":"Bekasi","district":"Babelan","urban":"Pantai Hurip","postal_code":17610},{"province":"Jawa Barat","city":"Bekasi","district":"Babelan","urban":"Kedungjaya","postal_code":17610},{"province":"Jawa Barat","city":"Bekasi","district":"Babelan","urban":"Muara Bakti","postal_code":17610},{"province":"Jawa Barat","city":"Bekasi","district":"Babelan","urban":"Kebalen","postal_code":17610},{"province":"Jawa Barat","city":"Bekasi","district":"Babelan","urban":"Kedung Pengawas","postal_code":17610},{"province":"Jawa Barat","city":"Bekasi","district":"Babelan","urban":"Buni Bakti","postal_code":17610},{"province":"Jawa Barat","city":"Bekasi","district":"Babelan","urban":"Hurip Jaya","postal_code":17610},{"province":"Jawa Barat","city":"Bekasi","district":"Babelan","urban":"Babelan Kota","postal_code":17610},{"province":"Jawa Barat","city":"Bekasi","district":"Babelan","urban":"Bahagia","postal_code":17610},{"province":"Jawa Barat","city":"Bekasi","district":"Kedung Waringin","urban":"Waringin Jaya","postal_code":17540},{"province":"Jawa Barat","city":"Bekasi","district":"Kedung Waringin","urban":"Karang Sambung","postal_code":17540},{"province":"Jawa Barat","city":"Bekasi","district":"Kedung Waringin","urban":"Kedungwaringin","postal_code":17540},{"province":"Jawa Barat","city":"Bekasi","district":"Kedung Waringin","urban":"Mekar Jaya","postal_code":17540},{"province":"Jawa Barat","city":"Bekasi","district":"Kedung Waringin","urban":"Karang Harum","postal_code":17540},{"province":"Jawa Barat","city":"Bekasi","district":"Kedung Waringin","urban":"Karang Mekar","postal_code":17540},{"province":"Jawa Barat","city":"Bekasi","district":"Kedung Waringin","urban":"Bojongsari","postal_code":17540},{"province":"Jawa Barat","city":"Bekasi","district":"Cikarang Utara","urban":"Wangunharja","postal_code":17530},{"province":"Jawa Barat","city":"Bekasi","district":"Cikarang Barat","urban":"Telajung","postal_code":17530},{"province":"Jawa Barat","city":"Bekasi","district":"Cikarang Utara","urban":"Waluya","postal_code":17530},{"province":"Jawa Barat","city":"Bekasi","district":"Cikarang Barat","urban":"Telaga Asih","postal_code":17530},{"province":"Jawa Barat","city":"Bekasi","district":"Cikarang Barat","urban":"Telaga Murni","postal_code":17530},{"province":"Jawa Barat","city":"Bekasi","district":"Cikarang Timur","urban":"Tanjungbaru","postal_code":17530},{"province":"Jawa Barat","city":"Bekasi","district":"Cikarang Utara","urban":"Tanjungsari","postal_code":17530},{"province":"Jawa Barat","city":"Bekasi","district":"Karangbahagia","urban":"Sukaraya","postal_code":17530},{"province":"Jawa Barat","city":"Bekasi","district":"Cikarang Selatan","urban":"Sukaresmi","postal_code":17530},{"province":"Jawa Barat","city":"Bekasi","district":"Cikarang Selatan","urban":"Sukasejati","postal_code":17530},{"province":"Jawa Barat","city":"Bekasi","district":"Cikarang Pusat","urban":"Sukamahi","postal_code":17530},{"province":"Jawa Barat","city":"Bekasi","district":"Cikarang Barat","urban":"Sukadanau","postal_code":17530},{"province":"Jawa Barat","city":"Bekasi","district":"Cikarang Selatan","urban":"Sukadami","postal_code":17530},{"province":"Jawa Barat","city":"Bekasi","district":"Cikarang Utara","urban":"Simpangan","postal_code":17530},{"province":"Jawa Barat","city":"Bekasi","district":"Cikarang Timur","urban":"Sertajaya","postal_code":17530},{"province":"Jawa Barat","city":"Bekasi","district":"Cikarang Pusat","urban":"Pasirtanjung","postal_code":17530},{"province":"Jawa Barat","city":"Bekasi","district":"Cikarang Selatan","urban":"Pasirsari","postal_code":17530},{"province":"Jawa Barat","city":"Bekasi","district":"Cikarang Selatan","urban":"Serang","postal_code":17530},{"province":"Jawa Barat","city":"Bekasi","district":"Cikarang Pusat","urban":"Pasirpanji","postal_code":17530},{"province":"Jawa Barat","city":"Bekasi","district":"Cikarang Utara","urban":"Pasir Gombong","postal_code":17530},{"province":"Jawa Barat","city":"Bekasi","district":"Cikarang Barat","urban":"Mekar Wangi","postal_code":17530},{"province":"Jawa Barat","city":"Bekasi","district":"Cikarang Utara","urban":"Mekarmukti","postal_code":17530},{"province":"Jawa Barat","city":"Bekasi","district":"Cikarang Timur","urban":"Karangsari","postal_code":17530},{"province":"Jawa Barat","city":"Bekasi","district":"Cikarang Timur","urban":"Labansari","postal_code":17530},{"province":"Jawa Barat","city":"Bekasi","district":"Cikarang Utara","urban":"Karangasih","postal_code":17530},{"province":"Jawa Barat","city":"Bekasi","district":"Cikarang Utara","urban":"Karangraharja","postal_code":17530},{"province":"Jawa Barat","city":"Bekasi","district":"Karangbahagia","urban":"Karangmukti","postal_code":17530},{"province":"Jawa Barat","city":"Bekasi","district":"Karangbahagia","urban":"Karang Setu","postal_code":17530},{"province":"Jawa Barat","city":"Bekasi","district":"Karangbahagia","urban":"Karanganyar","postal_code":17530},{"province":"Jawa Barat","city":"Bekasi","district":"Karangbahagia","urban":"Karang Sentosa","postal_code":17530},{"province":"Jawa Barat","city":"Bekasi","district":"Karangbahagia","urban":"Karang Setra","postal_code":17530},{"province":"Jawa Barat","city":"Bekasi","district":"Karangbahagia","urban":"Karang Rahayu","postal_code":17530},{"province":"Jawa Barat","city":"Bekasi","district":"Cikarang Utara","urban":"Karang Baru","postal_code":17530},{"province":"Jawa Barat","city":"Bekasi","district":"Karangbahagia","urban":"Karang Bahagia","postal_code":17530},{"province":"Jawa Barat","city":"Bekasi","district":"Cikarang Barat","urban":"Kali Jaya","postal_code":17530},{"province":"Jawa Barat","city":"Bekasi","district":"Cikarang Pusat","urban":"Jayamukti","postal_code":17530},{"province":"Jawa Barat","city":"Bekasi","district":"Cikarang Barat","urban":"Jatiwangi","postal_code":17530},{"province":"Jawa Barat","city":"Bekasi","district":"Cikarang Timur","urban":"Jatibaru","postal_code":17530},{"province":"Jawa Barat","city":"Bekasi","district":"Cikarang Timur","urban":"Jatireja","postal_code":17530},{"province":"Jawa Barat","city":"Bekasi","district":"Cikarang Pusat","urban":"Hegarmukti","postal_code":17530},{"province":"Jawa Barat","city":"Bekasi","district":"Cikarang Timur","urban":"Hegarmanah","postal_code":17530},{"province":"Jawa Barat","city":"Bekasi","district":"Cikarang Barat","urban":"Gandasari","postal_code":17530},{"province":"Jawa Barat","city":"Bekasi","district":"Cikarang Utara","urban":"Harja Mekar","postal_code":17530},{"province":"Jawa Barat","city":"Bekasi","district":"Cikarang Barat","urban":"Danau Indah","postal_code":17530},{"province":"Jawa Barat","city":"Bekasi","district":"Cikarang Barat","urban":"Gandamekar","postal_code":17530},{"province":"Jawa Barat","city":"Bekasi","district":"Cikarang Timur","urban":"Cipayung","postal_code":17530},{"province":"Jawa Barat","city":"Bekasi","district":"Cikarang Barat","urban":"Cikedokan","postal_code":17530},{"province":"Jawa Barat","city":"Bekasi","district":"Cikarang Utara","urban":"Cikarang Kota","postal_code":17530},{"province":"Jawa Barat","city":"Bekasi","district":"Cikarang Selatan","urban":"Cibatu","postal_code":17530},{"province":"Jawa Barat","city":"Bekasi","district":"Cikarang Pusat","urban":"Cicau","postal_code":17530},{"province":"Jawa Barat","city":"Bekasi","district":"Cibitung","urban":"Wanajaya","postal_code":17520},{"province":"Jawa Barat","city":"Bekasi","district":"Cibitung","urban":"Wanasari","postal_code":17520},{"province":"Jawa Barat","city":"Bekasi","district":"Cikarang Selatan","urban":"Ciantra","postal_code":17530},{"province":"Jawa Barat","city":"Bekasi","district":"Cibitung","urban":"Sarimukti","postal_code":17520},{"province":"Jawa Barat","city":"Bekasi","district":"Cibitung","urban":"Sukajaya","postal_code":17520},{"province":"Jawa Barat","city":"Bekasi","district":"Cibitung","urban":"Kerta Mukti","postal_code":17520},{"province":"Jawa Barat","city":"Bekasi","district":"Cibitung","urban":"Muktiwari","postal_code":17520},{"province":"Jawa Barat","city":"Bekasi","district":"Tambun Selatan","urban":"Tridaya Sakti","postal_code":17510},{"province":"Jawa Barat","city":"Bekasi","district":"Cibitung","urban":"Cibuntu","postal_code":17520},{"province":"Jawa Barat","city":"Bekasi","district":"Tambun Selatan","urban":"Sumber Jaya","postal_code":17510},{"province":"Jawa Barat","city":"Bekasi","district":"Tambun Selatan","urban":"Tambun","postal_code":17510},{"province":"Jawa Barat","city":"Bekasi","district":"Tambun Utara","urban":"Srijaya","postal_code":17510},{"province":"Jawa Barat","city":"Bekasi","district":"Tambun Utara","urban":"Srimahi","postal_code":17510},{"province":"Jawa Barat","city":"Bekasi","district":"Tambun Utara","urban":"Srimukti","postal_code":17510},{"province":"Jawa Barat","city":"Bekasi","district":"Tambun Selatan","urban":"Setiadarma","postal_code":17510},{"province":"Jawa Barat","city":"Bekasi","district":"Tambun Selatan","urban":"Setiamekar","postal_code":17510},{"province":"Jawa Barat","city":"Bekasi","district":"Tambun Utara","urban":"Sriamur","postal_code":17510},{"province":"Jawa Barat","city":"Bekasi","district":"Tambun Selatan","urban":"Mekarsari","postal_code":17510},{"province":"Jawa Barat","city":"Bekasi","district":"Tambun Utara","urban":"Satriajaya","postal_code":17510},{"province":"Jawa Barat","city":"Bekasi","district":"Tambun Utara","urban":"Satriamekar","postal_code":17510},{"province":"Jawa Barat","city":"Bekasi","district":"Tambun Selatan","urban":"Lambangsari","postal_code":17510},{"province":"Jawa Barat","city":"Bekasi","district":"Tambun Selatan","urban":"Mangunjaya","postal_code":17510},{"province":"Jawa Barat","city":"Bekasi","district":"Tambun Utara","urban":"Karangsatria","postal_code":17510},{"province":"Jawa Barat","city":"Bekasi","district":"Tambun Selatan","urban":"Lambangjaya","postal_code":17510},{"province":"Jawa Barat","city":"Bekasi","district":"Jati Sampurna","urban":"Jatiranggon","postal_code":17432},{"province":"Jawa Barat","city":"Bekasi","district":"Tambun Utara","urban":"Jalenjaya (Jejalenjaya)","postal_code":17510},{"province":"Jawa Barat","city":"Bekasi","district":"Jati Sampurna","urban":"Jatiraden","postal_code":17433},{"province":"Jawa Barat","city":"Bekasi","district":"Tambun Selatan","urban":"Jatimulya","postal_code":17510},{"province":"Jawa Barat","city":"Bekasi","district":"Pondok Melati","urban":"Jatimurni","postal_code":17431},{"province":"Jawa Barat","city":"Bekasi","district":"Jati Sampurna","urban":"Jatikarya","postal_code":17435},{"province":"Jawa Barat","city":"Bekasi","district":"Jatiasih","urban":"Jatisari","postal_code":17426},{"province":"Jawa Barat","city":"Bekasi","district":"Jati Sampurna","urban":"Jatisampurna","postal_code":17433},{"province":"Jawa Barat","city":"Bekasi","district":"Jatiasih","urban":"Jatiluhur","postal_code":17425},{"province":"Jawa Barat","city":"Bekasi","district":"Jati Sampurna","urban":"Jatirangga","postal_code":17434},{"province":"Jawa Barat","city":"Bekasi","district":"Jatiasih","urban":"Jatirasa","postal_code":17424},{"province":"Jawa Barat","city":"Bekasi","district":"Jatiasih","urban":"Jatiasih","postal_code":17423},{"province":"Jawa Barat","city":"Bekasi","district":"Jatiasih","urban":"Jati Mekar","postal_code":17422},{"province":"Jawa Barat","city":"Bekasi","district":"Jatiasih","urban":"Jatikramat","postal_code":17421},{"province":"Jawa Barat","city":"Bekasi","district":"Pondok Melati","urban":"Jatiwarna","postal_code":17415},{"province":"Jawa Barat","city":"Bekasi","district":"Pondok Melati","urban":"Jati Rahayu","postal_code":17414},{"province":"Jawa Barat","city":"Bekasi","district":"Pondok Melati","urban":"Jatimelati","postal_code":17414},{"province":"Jawa Barat","city":"Bekasi","district":"Pondok Gede","urban":"Jatibening Baru","postal_code":17412},{"province":"Jawa Barat","city":"Bekasi","district":"Pondok Gede","urban":"Jatimakmur","postal_code":17413},{"province":"Jawa Barat","city":"Bekasi","district":"Pondok Gede","urban":"Jaticempaka","postal_code":17411},{"province":"Jawa Barat","city":"Bekasi","district":"Pondok Gede","urban":"Jatiwaringin","postal_code":17411},{"province":"Jawa Barat","city":"Bekasi","district":"Pondok Gede","urban":"Jatibening","postal_code":17412},{"province":"Jawa Barat","city":"Bekasi","district":"Bojongmangu","urban":"Karangmulya","postal_code":17356},{"province":"Jawa Barat","city":"Bekasi","district":"Bojongmangu","urban":"Sukabungah","postal_code":17350},{"province":"Jawa Barat","city":"Bekasi","district":"Bojongmangu","urban":"Sukamukti","postal_code":17350},{"province":"Jawa Barat","city":"Bekasi","district":"Bojongmangu","urban":"Sukamukti","postal_code":17350},{"province":"Jawa Barat","city":"Bekasi","district":"Bojongmangu","urban":"Karangindah","postal_code":17350},{"province":"Jawa Barat","city":"Bekasi","district":"Bojongmangu","urban":"Medalkrisna","postal_code":17350},{"province":"Jawa Barat","city":"Bekasi","district":"Cibarusah","urban":"Sirnajati","postal_code":17340},{"province":"Jawa Barat","city":"Bekasi","district":"Cibarusah","urban":"Wibawamulya","postal_code":17340},{"province":"Jawa Barat","city":"Bekasi","district":"Cibarusah","urban":"Ridogalih","postal_code":17340},{"province":"Jawa Barat","city":"Bekasi","district":"Cibarusah","urban":"Ridomanah","postal_code":17340},{"province":"Jawa Barat","city":"Bekasi","district":"Cibarusah","urban":"Sindangmulya","postal_code":17340},{"province":"Jawa Barat","city":"Bekasi","district":"Cibarusah","urban":"Cibarusahjaya","postal_code":17340},{"province":"Jawa Barat","city":"Bekasi","district":"Cibarusah","urban":"Cibarusahkota","postal_code":17340},{"province":"Jawa Barat","city":"Bekasi","district":"Serang Baru","urban":"Sukaragam","postal_code":17330},{"province":"Jawa Barat","city":"Bekasi","district":"Serang Baru","urban":"Sukasari","postal_code":17330},{"province":"Jawa Barat","city":"Bekasi","district":"Serang Baru","urban":"Nagasari","postal_code":17330},{"province":"Jawa Barat","city":"Bekasi","district":"Serang Baru","urban":"Sirnajaya","postal_code":17330},{"province":"Jawa Barat","city":"Bekasi","district":"Serang Baru","urban":"Nagacipta","postal_code":17330},{"province":"Jawa Barat","city":"Bekasi","district":"Serang Baru","urban":"Jayamulya","postal_code":17330},{"province":"Jawa Barat","city":"Bekasi","district":"Serang Baru","urban":"Cilangkara","postal_code":17330},{"province":"Jawa Barat","city":"Bekasi","district":"Serang Baru","urban":"Jaya Sampurna","postal_code":17330},{"province":"Jawa Barat","city":"Bekasi","district":"Setu","urban":"Taman Rahayu","postal_code":17320},{"province":"Jawa Barat","city":"Bekasi","district":"Setu","urban":"Taman Sari","postal_code":17320},{"province":"Jawa Barat","city":"Bekasi","district":"Setu","urban":"Muktijaya","postal_code":17320},{"province":"Jawa Barat","city":"Bekasi","district":"Setu","urban":"Ragemanunggal","postal_code":17320},{"province":"Jawa Barat","city":"Bekasi","district":"Setu","urban":"Lubangbuaya","postal_code":17320},{"province":"Jawa Barat","city":"Bekasi","district":"Setu","urban":"Kertarahayu","postal_code":17320},{"province":"Jawa Barat","city":"Bekasi","district":"Setu","urban":"Cileduk","postal_code":17320},{"province":"Jawa Barat","city":"Bekasi","district":"Setu","urban":"Cikarageman","postal_code":17320},{"province":"Jawa Barat","city":"Bekasi","district":"Setu","urban":"Cibening","postal_code":17320},{"province":"Jawa Barat","city":"Bekasi","district":"Setu","urban":"Cijengkol","postal_code":17320},{"province":"Jawa Barat","city":"Bekasi","district":"Setu","urban":"Burangkeng","postal_code":17320},{"province":"Jawa Barat","city":"Bekasi","district":"Tarumajaya","urban":"Segara Jaya","postal_code":17218},{"province":"Jawa Barat","city":"Bekasi","district":"Tarumajaya","urban":"Pahlawan Setia","postal_code":17216},{"province":"Jawa Barat","city":"Bekasi","district":"Tarumajaya","urban":"Samudra Jaya","postal_code":17217},{"province":"Jawa Barat","city":"Bekasi","district":"Tarumajaya","urban":"Pusaka Rakyat","postal_code":17214},{"province":"Jawa Barat","city":"Bekasi","district":"Tarumajaya","urban":"Setia Asih","postal_code":17215},{"province":"Jawa Barat","city":"Bekasi","district":"Tarumajaya","urban":"Setia Mulya","postal_code":17213},{"province":"Jawa Barat","city":"Bekasi","district":"Tarumajaya","urban":"Segara Makmur","postal_code":17211},{"province":"Jawa Barat","city":"Bekasi","district":"Tarumajaya","urban":"Pantai Makmur","postal_code":17212},{"province":"Jawa Barat","city":"Bekasi","district":"Mustika Jaya","urban":"Mustika Sari","postal_code":17157},{"province":"Jawa Barat","city":"Bekasi","district":"Mustika Jaya","urban":"Mustika Jaya","postal_code":17158},{"province":"Jawa Barat","city":"Bekasi","district":"Mustika Jaya","urban":"Cimuning","postal_code":17155},{"province":"Jawa Barat","city":"Bekasi","district":"Mustika Jaya","urban":"Pedurenan (Padurenan)","postal_code":17156},{"province":"Jawa Barat","city":"Bekasi","district":"Bantar Gebang","urban":"Cikiwul","postal_code":17152},{"province":"Jawa Barat","city":"Bekasi","district":"Bantar Gebang","urban":"Ciketing Udik","postal_code":17153},{"province":"Jawa Barat","city":"Bekasi","district":"Bantar Gebang","urban":"Sumur Batu","postal_code":17154},{"province":"Jawa Barat","city":"Bekasi","district":"Bekasi Selatan","urban":"Pekayon Jaya","postal_code":17148},{"province":"Jawa Barat","city":"Bekasi","district":"Bantar Gebang","urban":"Bantar Gebang","postal_code":17151},{"province":"Jawa Barat","city":"Bekasi","district":"Bekasi Selatan","urban":"Jaka Setia","postal_code":17147},{"province":"Jawa Barat","city":"Bekasi","district":"Bekasi Selatan","urban":"Jaka Mulya","postal_code":17146},{"province":"Jawa Barat","city":"Bekasi","district":"Bekasi Barat","urban":"Jaka Sampurna","postal_code":17145},{"province":"Jawa Barat","city":"Bekasi","district":"Bekasi Selatan","urban":"Kayuringin Jaya","postal_code":17144},{"province":"Jawa Barat","city":"Bekasi","district":"Bekasi Utara","urban":"Marga Mulya","postal_code":17142},{"province":"Jawa Barat","city":"Bekasi","district":"Medan Satria","urban":"Harapan Mulya","postal_code":17143},{"province":"Jawa Barat","city":"Bekasi","district":"Bekasi Barat","urban":"Bintara Jaya","postal_code":17136},{"province":"Jawa Barat","city":"Bekasi","district":"Bekasi Selatan","urban":"Margajaya","postal_code":17141},{"province":"Jawa Barat","city":"Bekasi","district":"Bekasi Barat","urban":"Kota Baru","postal_code":17133},{"province":"Jawa Barat","city":"Bekasi","district":"Bekasi Barat","urban":"Bintara","postal_code":17134},{"province":"Jawa Barat","city":"Bekasi","district":"Bekasi Barat","urban":"Kranji","postal_code":17135},{"province":"Jawa Barat","city":"Bekasi","district":"Medan Satria","urban":"Medan Satria","postal_code":17132},{"province":"Jawa Barat","city":"Bekasi","district":"Medan Satria","urban":"Kali Baru","postal_code":17133},{"province":"Jawa Barat","city":"Bekasi","district":"Medan Satria","urban":"Pejuang","postal_code":17131},{"province":"Jawa Barat","city":"Bekasi","district":"Bekasi Utara","urban":"Kali Abang Tengah","postal_code":17125},{"province":"Jawa Barat","city":"Bekasi","district":"Bekasi Utara","urban":"Harapan Baru","postal_code":17123},{"province":"Jawa Barat","city":"Bekasi","district":"Bekasi Utara","urban":"Harapan Jaya","postal_code":17124},{"province":"Jawa Barat","city":"Bekasi","district":"Bekasi Utara","urban":"Teluk Pucung","postal_code":17121},{"province":"Jawa Barat","city":"Bekasi","district":"Bekasi Utara","urban":"Perwira","postal_code":17122},{"province":"Jawa Barat","city":"Bekasi","district":"Rawalumbu","urban":"Bojong Menteng","postal_code":17117},{"province":"Jawa Barat","city":"Bekasi","district":"Rawalumbu","urban":"Sepanjang Jaya","postal_code":17114},{"province":"Jawa Barat","city":"Bekasi","district":"Rawalumbu","urban":"Pengasinan","postal_code":17115},{"province":"Jawa Barat","city":"Bekasi","district":"Rawalumbu","urban":"Bojong Rawalumbu","postal_code":17116},{"province":"Jawa Barat","city":"Bekasi","district":"Bekasi Timur","urban":"Bekasi Jaya","postal_code":17112},{"province":"Jawa Barat","city":"Bekasi","district":"Bekasi Timur","urban":"Margahayu","postal_code":17113},{"province":"Jawa Barat","city":"Bekasi","district":"Bekasi Timur","urban":"Aren Jaya","postal_code":17111},{"province":"Jawa Barat","city":"Bekasi","district":"Bekasi Timur","urban":"Duren Jaya","postal_code":17111}]